STARLINK-5384           
1 54836U 22177S   25213.15595158  .00000298  00000+0  37113-4 0  9994
2 54836  43.0014 251.4463 0000969 258.8521 101.2212 15.02537954142805
STARLINK-5369           
1 54837U 22177T   25213.15706838  .00000668  00000+0  64548-4 0  9997
2 54837  43.0008 251.4597 0001891 130.5418 229.5589 15.02532324142800
STARLINK-5372           
1 54838U 22177U   25213.14929642 -.00000117  00000+0  63849-5 0  9991
2 54838  43.0027 251.4009 0001508 299.6485  60.4207 15.02534410142803
STARLINK-5368           
1 54840U 22177W   25213.47280668 -.00000004  00000+0  14790-4 0  9993
2 54840  43.0018 249.5324 0001138 279.3415  80.7299 15.02534314142855
STARLINK-4659           
1 54841U 22177X   25213.15262833 -.00000175  00000+0  20983-5 0  9994
2 54841  43.0021 251.4285 0001203 255.0939 104.9770 15.02534870142808
STARLINK-5387           
1 54842U 22177Y   25213.53263126 -.00000806  00000+0 -44589-4 0  9992
2 54842  43.0034 249.1186 0001335 281.7528  78.3164 15.02528502142865
STARLINK-5304           
1 54843U 22177Z   25212.41471017 -.00000361  00000+0 -11620-4 0  9995
2 54843  43.0023 255.3508 0001213 272.7475  87.3228 15.02538259142699
STARLINK-5388           
1 54844U 22177AA  25212.46453686 -.00000742  00000+0 -39850-4 0  9991
2 54844  43.0027 254.8437 0001842 284.0386  76.0252 15.02538428143684
STARLINK-5082           
1 54845U 22177AB  25213.13708690  .00000104  00000+0  22800-4 0  9992
2 54845  43.0018 251.3116 0001139 285.5162  74.5554 15.02533091142800
STARLINK-5360           
1 54846U 22177AC  25213.46282863 -.00000763  00000+0 -41418-4 0  9997
2 54846  43.0043 249.4596 0000570 257.2591 102.8188 15.02523228142853
STARLINK-5061           
1 54847U 22177AD  25212.49280225  .00000748  00000+0  70474-4 0  9995
2 54847  43.0028 229.0622 0001402 276.8651  83.2032 15.02534879143989
STARLINK-5432           
1 54848U 22177AE  25213.46324343  .00002105  00000+0  17111-3 0  9991
2 54848  42.9973 237.3101 0002333  54.9318 305.1743 15.02489430142997
STARLINK-5434           
1 54849U 22177AF  25213.58335648  .00639082  00000+0  11628-1 0  9990
2 54849  42.9999 234.9149 0001714 299.3913  96.9230 15.46720978143034
STARLINK-5087           
1 54850U 22177AG  25213.05989926 -.00001024  00000+0 -60734-4 0  9994
2 54850  43.0014 239.4412 0001289 276.9534  83.1162 15.02522346142937
STARLINK-5084           
1 54851U 22177AH  25213.12970115 -.00001147  00000+0 -69858-4 0  9995
2 54851  43.0021 239.1019 0001330 276.0363  84.0328 15.02524952142944
STARLINK-5418           
1 54852U 22177AJ  25213.11970211 -.00000753  00000+0 -40677-4 0  9992
2 54852  43.0020 239.0296 0001501 274.9124  85.1547 15.02540262142949
STARLINK-5427           
1 54853U 22177AK  25213.12303307  .00000136  00000+0  25129-4 0  9998
2 54853  43.0024 239.0552 0001461 274.5539  85.5137 15.02535011142945
