[{"OBJECT_NAME":"STARLINK-5384","OBJECT_ID":"2022-177S","EPOCH":"2025-08-01T03:44:34.216512","MEAN_MOTION":15.02537954,"ECCENTRICITY":9.69e-5,"INCLINATION":43.0014,"RA_OF_ASC_NODE":251.4463,"ARG_OF_PERICENTER":258.8521,"MEAN_ANOMALY":101.2212,"EPHEMERIS_TYPE":0,"CLASSIFICATION_TYPE":"U","NORAD_CAT_ID":54836,"ELEMENT_SET_NO":999,"REV_AT_EPOCH":14280,"BSTAR":3.7113e-5,"MEAN_MOTION_DOT":2.98e-6,"MEAN_MOTION_DDOT":0},{"OBJECT_NAME":"STARLINK-5369","OBJECT_ID":"2022-177T","EPOCH":"2025-08-01T03:46:10.708032","MEAN_MOTION":15.02532324,"ECCENTRICITY":0.0001891,"INCLINATION":43.0008,"RA_OF_ASC_NODE":251.4597,"ARG_OF_PERICENTER":130.5418,"MEAN_ANOMALY":229.5589,"EPHEMERIS_TYPE":0,"CLASSIFICATION_TYPE":"U","NORAD_CAT_ID":54837,"ELEMENT_SET_NO":999,"REV_AT_EPOCH":14280,"BSTAR":6.4548e-5,"MEAN_MOTION_DOT":6.68e-6,"MEAN_MOTION_DDOT":0},{"OBJECT_NAME":"STARLINK-5372","OBJECT_ID":"2022-177U","EPOCH":"2025-08-01T03:34:59.210688","MEAN_MOTION":15.0253441,"ECCENTRICITY":0.0001508,"INCLINATION":43.0027,"RA_OF_ASC_NODE":251.4009,"ARG_OF_PERICENTER":299.6485,"MEAN_ANOMALY":60.4207,"EPHEMERIS_TYPE":0,"CLASSIFICATION_TYPE":"U","NORAD_CAT_ID":54838,"ELEMENT_SET_NO":999,"REV_AT_EPOCH":14280,"BSTAR":6.3849e-6,"MEAN_MOTION_DOT":-1.17e-6,"MEAN_MOTION_DDOT":0},{"OBJECT_NAME":"STARLINK-5368","OBJECT_ID":"2022-177W","EPOCH":"2025-08-01T11:20:50.497152","MEAN_MOTION":15.02534314,"ECCENTRICITY":0.0001138,"INCLINATION":43.0018,"RA_OF_ASC_NODE":249.5324,"ARG_OF_PERICENTER":279.3415,"MEAN_ANOMALY":80.7299,"EPHEMERIS_TYPE":0,"CLASSIFICATION_TYPE":"U","NORAD_CAT_ID":54840,"ELEMENT_SET_NO":999,"REV_AT_EPOCH":14285,"BSTAR":1.479e-5,"MEAN_MOTION_DOT":-4.0e-8,"MEAN_MOTION_DDOT":0},{"OBJECT_NAME":"STARLINK-4659","OBJECT_ID":"2022-177X","EPOCH":"2025-08-01T03:39:47.087712","MEAN_MOTION":15.0253487,"ECCENTRICITY":0.0001203,"INCLINATION":43.0021,"RA_OF_ASC_NODE":251.4285,"ARG_OF_PERICENTER":255.0939,"MEAN_ANOMALY":104.977,"EPHEMERIS_TYPE":0,"CLASSIFICATION_TYPE":"U","NORAD_CAT_ID":54841,"ELEMENT_SET_NO":999,"REV_AT_EPOCH":14280,"BSTAR":2.0983e-6,"MEAN_MOTION_DOT":-1.75e-6,"MEAN_MOTION_DDOT":0},{"OBJECT_NAME":"STARLINK-5387","OBJECT_ID":"2022-177Y","EPOCH":"2025-08-01T12:46:59.340864","MEAN_MOTION":15.02528502,"ECCENTRICITY":0.0001335,"INCLINATION":43.0034,"RA_OF_ASC_NODE":249.1186,"ARG_OF_PERICENTER":281.7528,"MEAN_ANOMALY":78.3164,"EPHEMERIS_TYPE":0,"CLASSIFICATION_TYPE":"U","NORAD_CAT_ID":54842,"ELEMENT_SET_NO":999,"REV_AT_EPOCH":14286,"BSTAR":-4.4589e-5,"MEAN_MOTION_DOT":-8.06e-6,"MEAN_MOTION_DDOT":0},{"OBJECT_NAME":"STARLINK-5304","OBJECT_ID":"2022-177Z","EPOCH":"2025-07-31T09:57:10.958688","MEAN_MOTION":15.02538259,"ECCENTRICITY":0.0001213,"INCLINATION":43.0023,"RA_OF_ASC_NODE":255.3508,"ARG_OF_PERICENTER":272.7475,"MEAN_ANOMALY":87.3228,"EPHEMERIS_TYPE":0,"CLASSIFICATION_TYPE":"U","NORAD_CAT_ID":54843,"ELEMENT_SET_NO":999,"REV_AT_EPOCH":14269,"BSTAR":-1.162e-5,"MEAN_MOTION_DOT":-3.61e-6,"MEAN_MOTION_DDOT":0},{"OBJECT_NAME":"STARLINK-5388","OBJECT_ID":"2022-177AA","EPOCH":"2025-07-31T11:08:55.984704","MEAN_MOTION":15.02538428,"ECCENTRICITY":0.0001842,"INCLINATION":43.0027,"RA_OF_ASC_NODE":254.8437,"ARG_OF_PERICENTER":284.0386,"MEAN_ANOMALY":76.0252,"EPHEMERIS_TYPE":0,"CLASSIFICATION_TYPE":"U","NORAD_CAT_ID":54844,"ELEMENT_SET_NO":999,"REV_AT_EPOCH":14368,"BSTAR":-3.985e-5,"MEAN_MOTION_DOT":-7.42e-6,"MEAN_MOTION_DDOT":0},{"OBJECT_NAME":"STARLINK-5082","OBJECT_ID":"2022-177AB","EPOCH":"2025-08-01T03:17:24.308160","MEAN_MOTION":15.02533091,"ECCENTRICITY":0.0001139,"INCLINATION":43.0018,"RA_OF_ASC_NODE":251.3116,"ARG_OF_PERICENTER":285.5162,"MEAN_ANOMALY":74.5554,"EPHEMERIS_TYPE":0,"CLASSIFICATION_TYPE":"U","NORAD_CAT_ID":54845,"ELEMENT_SET_NO":999,"REV_AT_EPOCH":14280,"BSTAR":2.28e-5,"MEAN_MOTION_DOT":1.04e-6,"MEAN_MOTION_DDOT":0},{"OBJECT_NAME":"STARLINK-5360","OBJECT_ID":"2022-177AC","EPOCH":"2025-08-01T11:06:28.393632","MEAN_MOTION":15.02523228,"ECCENTRICITY":5.7e-5,"INCLINATION":43.0043,"RA_OF_ASC_NODE":249.4596,"ARG_OF_PERICENTER":257.2591,"MEAN_ANOMALY":102.8188,"EPHEMERIS_TYPE":0,"CLASSIFICATION_TYPE":"U","NORAD_CAT_ID":54846,"ELEMENT_SET_NO":999,"REV_AT_EPOCH":14285,"BSTAR":-4.1418e-5,"MEAN_MOTION_DOT":-7.63e-6,"MEAN_MOTION_DDOT":0},{"OBJECT_NAME":"STARLINK-5061","OBJECT_ID":"2022-177AD","EPOCH":"2025-07-31T11:49:38.114400","MEAN_MOTION":15.02534879,"ECCENTRICITY":0.0001402,"INCLINATION":43.0028,"RA_OF_ASC_NODE":229.0622,"ARG_OF_PERICENTER":276.8651,"MEAN_ANOMALY":83.2032,"EPHEMERIS_TYPE":0,"CLASSIFICATION_TYPE":"U","NORAD_CAT_ID":54847,"ELEMENT_SET_NO":999,"REV_AT_EPOCH":14398,"BSTAR":7.0474e-5,"MEAN_MOTION_DOT":7.48e-6,"MEAN_MOTION_DDOT":0},{"OBJECT_NAME":"STARLINK-5432","OBJECT_ID":"2022-177AE","EPOCH":"2025-08-01T11:07:04.232352","MEAN_MOTION":15.0248943,"ECCENTRICITY":0.0002333,"INCLINATION":42.9973,"RA_OF_ASC_NODE":237.3101,"ARG_OF_PERICENTER":54.9318,"MEAN_ANOMALY":305.1743,"EPHEMERIS_TYPE":0,"CLASSIFICATION_TYPE":"U","NORAD_CAT_ID":54848,"ELEMENT_SET_NO":999,"REV_AT_EPOCH":14299,"BSTAR":0.00017111,"MEAN_MOTION_DOT":2.105e-5,"MEAN_MOTION_DDOT":0},{"OBJECT_NAME":"STARLINK-5434","OBJECT_ID":"2022-177AF","EPOCH":"2025-08-01T14:00:01.999872","MEAN_MOTION":15.46720978,"ECCENTRICITY":0.0001714,"INCLINATION":42.9999,"RA_OF_ASC_NODE":234.9149,"ARG_OF_PERICENTER":299.3913,"MEAN_ANOMALY":96.923,"EPHEMERIS_TYPE":0,"CLASSIFICATION_TYPE":"U","NORAD_CAT_ID":54849,"ELEMENT_SET_NO":999,"REV_AT_EPOCH":14303,"BSTAR":0.011628,"MEAN_MOTION_DOT":0.00639082,"MEAN_MOTION_DDOT":0},{"OBJECT_NAME":"STARLINK-5087","OBJECT_ID":"2022-177AG","EPOCH":"2025-08-01T01:26:15.296064","MEAN_MOTION":15.02522346,"ECCENTRICITY":0.0001289,"INCLINATION":43.0014,"RA_OF_ASC_NODE":239.4412,"ARG_OF_PERICENTER":276.9534,"MEAN_ANOMALY":83.1162,"EPHEMERIS_TYPE":0,"CLASSIFICATION_TYPE":"U","NORAD_CAT_ID":54850,"ELEMENT_SET_NO":999,"REV_AT_EPOCH":14293,"BSTAR":-6.0734e-5,"MEAN_MOTION_DOT":-1.024e-5,"MEAN_MOTION_DDOT":0},{"OBJECT_NAME":"STARLINK-5084","OBJECT_ID":"2022-177AH","EPOCH":"2025-08-01T03:06:46.179360","MEAN_MOTION":15.02524952,"ECCENTRICITY":0.000133,"INCLINATION":43.0021,"RA_OF_ASC_NODE":239.1019,"ARG_OF_PERICENTER":276.0363,"MEAN_ANOMALY":84.0328,"EPHEMERIS_TYPE":0,"CLASSIFICATION_TYPE":"U","NORAD_CAT_ID":54851,"ELEMENT_SET_NO":999,"REV_AT_EPOCH":14294,"BSTAR":-6.9858e-5,"MEAN_MOTION_DOT":-1.147e-5,"MEAN_MOTION_DDOT":0},{"OBJECT_NAME":"STARLINK-5418","OBJECT_ID":"2022-177AJ","EPOCH":"2025-08-01T02:52:22.262304","MEAN_MOTION":15.02540262,"ECCENTRICITY":0.0001501,"INCLINATION":43.002,"RA_OF_ASC_NODE":239.0296,"ARG_OF_PERICENTER":274.9124,"MEAN_ANOMALY":85.1547,"EPHEMERIS_TYPE":0,"CLASSIFICATION_TYPE":"U","NORAD_CAT_ID":54852,"ELEMENT_SET_NO":999,"REV_AT_EPOCH":14294,"BSTAR":-4.0677e-5,"MEAN_MOTION_DOT":-7.53e-6,"MEAN_MOTION_DDOT":0},{"OBJECT_NAME":"STARLINK-5427","OBJECT_ID":"2022-177AK","EPOCH":"2025-08-01T02:57:10.057248","MEAN_MOTION":15.02535011,"ECCENTRICITY":0.0001461,"INCLINATION":43.0024,"RA_OF_ASC_NODE":239.0552,"ARG_OF_PERICENTER":274.5539,"MEAN_ANOMALY":85.5137,"EPHEMERIS_TYPE":0,"CLASSIFICATION_TYPE":"U","NORAD_CAT_ID":54853,"ELEMENT_SET_NO":999,"REV_AT_EPOCH":14294,"BSTAR":2.5129e-5,"MEAN_MOTION_DOT":1.36e-6,"MEAN_MOTION_DDOT":0}]
